STARLINK-35915          
1 66521U 25265F   25336.50006943  .00042764  00000+0  28097-3 0  9997
2 66521  42.9989 114.8776 0001446 263.0246 210.2682 15.74966701  3342
STARLINK-35946          
1 66522U 25265G   25336.50006943 -.00080846  00000+0 -52741-3 0  9996
2 66522  42.9989 114.8731 0001512 265.9070 209.2187 15.75074909  3343
STARLINK-35969          
1 66523U 25265H   25336.50006943 -.00034768  00000+0 -22396-3 0  9992
2 66523  42.9991 114.8684 0001463 276.9380 200.1084 15.75059406  3346
STARLINK-35687          
1 66524U 25265J   25336.50006943 -.00019951  00000+0 -12700-3 0  9998
2 66524  42.9991 114.8631 0001601 272.5500 206.4083 15.75052847  3349
STARLINK-35975          
1 66525U 25265K   25336.50006943 -.00006636  00000+0 -40119-4 0  9991
2 66525  42.9991 114.8588 0001456 261.5507 219.3266 15.75043787  3343
STARLINK-35932          
1 66526U 25265L   25336.50006943  .00006138  00000+0  43026-4 0  9997
2 66526  42.9992 114.8540 0001606 267.7260 215.0620 15.75045376  3246
STARLINK-35935          
1 66527U 25265M   25336.50006943  .00004427  00000+0  31916-4 0  9992
2 66527  42.9990 114.8494 0001431 262.0243 222.6892 15.75036495  3346
STARLINK-35928          
1 66528U 25265N   25336.50006943 -.00002861  00000+0 -15521-4 0  9999
2 66528  42.9993 114.8446 0001453 265.6052 221.0274 15.75041099  3341
STARLINK-35933          
1 66529U 25265P   25336.50006943 -.00011421  00000+0 -71246-4 0  9998
2 66529  42.9994 114.8392 0001646 256.2001 232.3623 15.75068193  3344
STARLINK-35961          
1 66530U 25265Q   25336.50006943 -.00075914  00000+0 -49477-3 0  9997
2 66530  42.9993 114.8349 0001461 261.5059 228.9542 15.75074358  3345
STARLINK-35960          
1 66531U 25265R   25336.50006943 -.00024598  00000+0 -15736-3 0  9991
2 66531  42.9993 114.8298 0001462 268.0005 224.3811 15.75056512  3344
STARLINK-35914          
1 66532U 25265S   25336.50006943  .00004677  00000+0  33551-4 0  9992
2 66532  42.9991 114.8250 0001636 266.2056 228.1059 15.75031856  3340
