CCSDS_OMM_VERS = 2.0
CREATION_DATE  = 
ORIGINATOR     = 

OBJECT_NAME    = STARLINK-35915
OBJECT_ID      = 2025-265F
CENTER_NAME    = EARTH
REF_FRAME      = TEME
TIME_SYSTEM    = UTC
MEAN_ELEMENT_THEORY = SGP/SGP4

EPOCH          = 2025-12-02T12:00:05.998752
MEAN_MOTION    = 15.74966701
ECCENTRICITY   = .0001446
INCLINATION    = 42.9989
RA_OF_ASC_NODE = 114.8776
ARG_OF_PERICENTER = 263.0246
MEAN_ANOMALY   = 210.2682

EPHEMERIS_TYPE = 0
CLASSIFICATION_TYPE = U
NORAD_CAT_ID   = 66521
ELEMENT_SET_NO = 999
REV_AT_EPOCH   = 334
BSTAR          = .28097E-3
MEAN_MOTION_DOT = .42764E-3
MEAN_MOTION_DDOT = 0

CCSDS_OMM_VERS = 2.0
CREATION_DATE  = 
ORIGINATOR     = 

OBJECT_NAME    = STARLINK-35946
OBJECT_ID      = 2025-265G
CENTER_NAME    = EARTH
REF_FRAME      = TEME
TIME_SYSTEM    = UTC
MEAN_ELEMENT_THEORY = SGP/SGP4

EPOCH          = 2025-12-02T12:00:05.998752
MEAN_MOTION    = 15.75074909
ECCENTRICITY   = .0001512
INCLINATION    = 42.9989
RA_OF_ASC_NODE = 114.8731
ARG_OF_PERICENTER = 265.9070
MEAN_ANOMALY   = 209.2187

EPHEMERIS_TYPE = 0
CLASSIFICATION_TYPE = U
NORAD_CAT_ID   = 66522
ELEMENT_SET_NO = 999
REV_AT_EPOCH   = 334
BSTAR          = -.52741E-3
MEAN_MOTION_DOT = -.80846E-3
MEAN_MOTION_DDOT = 0

CCSDS_OMM_VERS = 2.0
CREATION_DATE  = 
ORIGINATOR     = 

OBJECT_NAME    = STARLINK-35969
OBJECT_ID      = 2025-265H
CENTER_NAME    = EARTH
REF_FRAME      = TEME
TIME_SYSTEM    = UTC
MEAN_ELEMENT_THEORY = SGP/SGP4

EPOCH          = 2025-12-02T12:00:05.998752
MEAN_MOTION    = 15.75059406
ECCENTRICITY   = .0001463
INCLINATION    = 42.9991
RA_OF_ASC_NODE = 114.8684
ARG_OF_PERICENTER = 276.9380
MEAN_ANOMALY   = 200.1084

EPHEMERIS_TYPE = 0
CLASSIFICATION_TYPE = U
NORAD_CAT_ID   = 66523
ELEMENT_SET_NO = 999
REV_AT_EPOCH   = 334
BSTAR          = -.22396E-3
MEAN_MOTION_DOT = -.34768E-3
MEAN_MOTION_DDOT = 0

CCSDS_OMM_VERS = 2.0
CREATION_DATE  = 
ORIGINATOR     = 

OBJECT_NAME    = STARLINK-35687
OBJECT_ID      = 2025-265J
CENTER_NAME    = EARTH
REF_FRAME      = TEME
TIME_SYSTEM    = UTC
MEAN_ELEMENT_THEORY = SGP/SGP4

EPOCH          = 2025-12-02T12:00:05.998752
MEAN_MOTION    = 15.75052847
ECCENTRICITY   = .0001601
INCLINATION    = 42.9991
RA_OF_ASC_NODE = 114.8631
ARG_OF_PERICENTER = 272.5500
MEAN_ANOMALY   = 206.4083

EPHEMERIS_TYPE = 0
CLASSIFICATION_TYPE = U
NORAD_CAT_ID   = 66524
ELEMENT_SET_NO = 999
REV_AT_EPOCH   = 334
BSTAR          = -.127E-3
MEAN_MOTION_DOT = -.19951E-3
MEAN_MOTION_DDOT = 0

CCSDS_OMM_VERS = 2.0
CREATION_DATE  = 
ORIGINATOR     = 

OBJECT_NAME    = STARLINK-35975
OBJECT_ID      = 2025-265K
CENTER_NAME    = EARTH
REF_FRAME      = TEME
TIME_SYSTEM    = UTC
MEAN_ELEMENT_THEORY = SGP/SGP4

EPOCH          = 2025-12-02T12:00:05.998752
MEAN_MOTION    = 15.75043787
ECCENTRICITY   = .0001456
INCLINATION    = 42.9991
RA_OF_ASC_NODE = 114.8588
ARG_OF_PERICENTER = 261.5507
MEAN_ANOMALY   = 219.3266

EPHEMERIS_TYPE = 0
CLASSIFICATION_TYPE = U
NORAD_CAT_ID   = 66525
ELEMENT_SET_NO = 999
REV_AT_EPOCH   = 334
BSTAR          = -.40119E-4
MEAN_MOTION_DOT = -.6636E-4
MEAN_MOTION_DDOT = 0

CCSDS_OMM_VERS = 2.0
CREATION_DATE  = 
ORIGINATOR     = 

OBJECT_NAME    = STARLINK-35932
OBJECT_ID      = 2025-265L
CENTER_NAME    = EARTH
REF_FRAME      = TEME
TIME_SYSTEM    = UTC
MEAN_ELEMENT_THEORY = SGP/SGP4

EPOCH          = 2025-12-02T12:00:05.998752
MEAN_MOTION    = 15.75045376
ECCENTRICITY   = .0001606
INCLINATION    = 42.9992
RA_OF_ASC_NODE = 114.8540
ARG_OF_PERICENTER = 267.7260
MEAN_ANOMALY   = 215.0620

EPHEMERIS_TYPE = 0
CLASSIFICATION_TYPE = U
NORAD_CAT_ID   = 66526
ELEMENT_SET_NO = 999
REV_AT_EPOCH   = 324
BSTAR          = .43026E-4
MEAN_MOTION_DOT = .6138E-4
MEAN_MOTION_DDOT = 0

CCSDS_OMM_VERS = 2.0
CREATION_DATE  = 
ORIGINATOR     = 

OBJECT_NAME    = STARLINK-35935
OBJECT_ID      = 2025-265M
CENTER_NAME    = EARTH
REF_FRAME      = TEME
TIME_SYSTEM    = UTC
MEAN_ELEMENT_THEORY = SGP/SGP4

EPOCH          = 2025-12-02T12:00:05.998752
MEAN_MOTION    = 15.75036495
ECCENTRICITY   = .0001431
INCLINATION    = 42.9990
RA_OF_ASC_NODE = 114.8494
ARG_OF_PERICENTER = 262.0243
MEAN_ANOMALY   = 222.6892

EPHEMERIS_TYPE = 0
CLASSIFICATION_TYPE = U
NORAD_CAT_ID   = 66527
ELEMENT_SET_NO = 999
REV_AT_EPOCH   = 334
BSTAR          = .31916E-4
MEAN_MOTION_DOT = .4427E-4
MEAN_MOTION_DDOT = 0

CCSDS_OMM_VERS = 2.0
CREATION_DATE  = 
ORIGINATOR     = 

OBJECT_NAME    = STARLINK-35928
OBJECT_ID      = 2025-265N
CENTER_NAME    = EARTH
REF_FRAME      = TEME
TIME_SYSTEM    = UTC
MEAN_ELEMENT_THEORY = SGP/SGP4

EPOCH          = 2025-12-02T12:00:05.998752
MEAN_MOTION    = 15.75041099
ECCENTRICITY   = .0001453
INCLINATION    = 42.9993
RA_OF_ASC_NODE = 114.8446
ARG_OF_PERICENTER = 265.6052
MEAN_ANOMALY   = 221.0274

EPHEMERIS_TYPE = 0
CLASSIFICATION_TYPE = U
NORAD_CAT_ID   = 66528
ELEMENT_SET_NO = 999
REV_AT_EPOCH   = 334
BSTAR          = -.15521E-4
MEAN_MOTION_DOT = -.2861E-4
MEAN_MOTION_DDOT = 0

CCSDS_OMM_VERS = 2.0
CREATION_DATE  = 
ORIGINATOR     = 

OBJECT_NAME    = STARLINK-35933
OBJECT_ID      = 2025-265P
CENTER_NAME    = EARTH
REF_FRAME      = TEME
TIME_SYSTEM    = UTC
MEAN_ELEMENT_THEORY = SGP/SGP4

EPOCH          = 2025-12-02T12:00:05.998752
MEAN_MOTION    = 15.75068193
ECCENTRICITY   = .0001646
INCLINATION    = 42.9994
RA_OF_ASC_NODE = 114.8392
ARG_OF_PERICENTER = 256.2001
MEAN_ANOMALY   = 232.3623

EPHEMERIS_TYPE = 0
CLASSIFICATION_TYPE = U
NORAD_CAT_ID   = 66529
ELEMENT_SET_NO = 999
REV_AT_EPOCH   = 334
BSTAR          = -.71246E-4
MEAN_MOTION_DOT = -.11421E-3
MEAN_MOTION_DDOT = 0

CCSDS_OMM_VERS = 2.0
CREATION_DATE  = 
ORIGINATOR     = 

OBJECT_NAME    = STARLINK-35961
OBJECT_ID      = 2025-265Q
CENTER_NAME    = EARTH
REF_FRAME      = TEME
TIME_SYSTEM    = UTC
MEAN_ELEMENT_THEORY = SGP/SGP4

EPOCH          = 2025-12-02T12:00:05.998752
MEAN_MOTION    = 15.75074358
ECCENTRICITY   = .0001461
INCLINATION    = 42.9993
RA_OF_ASC_NODE = 114.8349
ARG_OF_PERICENTER = 261.5059
MEAN_ANOMALY   = 228.9542

EPHEMERIS_TYPE = 0
CLASSIFICATION_TYPE = U
NORAD_CAT_ID   = 66530
ELEMENT_SET_NO = 999
REV_AT_EPOCH   = 334
BSTAR          = -.49477E-3
MEAN_MOTION_DOT = -.75914E-3
MEAN_MOTION_DDOT = 0

CCSDS_OMM_VERS = 2.0
CREATION_DATE  = 
ORIGINATOR     = 

OBJECT_NAME    = STARLINK-35960
OBJECT_ID      = 2025-265R
CENTER_NAME    = EARTH
REF_FRAME      = TEME
TIME_SYSTEM    = UTC
MEAN_ELEMENT_THEORY = SGP/SGP4

EPOCH          = 2025-12-02T12:00:05.998752
MEAN_MOTION    = 15.75056512
ECCENTRICITY   = .0001462
INCLINATION    = 42.9993
RA_OF_ASC_NODE = 114.8298
ARG_OF_PERICENTER = 268.0005
MEAN_ANOMALY   = 224.3811

EPHEMERIS_TYPE = 0
CLASSIFICATION_TYPE = U
NORAD_CAT_ID   = 66531
ELEMENT_SET_NO = 999
REV_AT_EPOCH   = 334
BSTAR          = -.15736E-3
MEAN_MOTION_DOT = -.24598E-3
MEAN_MOTION_DDOT = 0

CCSDS_OMM_VERS = 2.0
CREATION_DATE  = 
ORIGINATOR     = 

OBJECT_NAME    = STARLINK-35914
OBJECT_ID      = 2025-265S
CENTER_NAME    = EARTH
REF_FRAME      = TEME
TIME_SYSTEM    = UTC
MEAN_ELEMENT_THEORY = SGP/SGP4

EPOCH          = 2025-12-02T12:00:05.998752
MEAN_MOTION    = 15.75031856
ECCENTRICITY   = .0001636
INCLINATION    = 42.9991
RA_OF_ASC_NODE = 114.8250
ARG_OF_PERICENTER = 266.2056
MEAN_ANOMALY   = 228.1059

EPHEMERIS_TYPE = 0
CLASSIFICATION_TYPE = U
NORAD_CAT_ID   = 66532
ELEMENT_SET_NO = 999
REV_AT_EPOCH   = 334
BSTAR          = .33551E-4
MEAN_MOTION_DOT = .4677E-4
MEAN_MOTION_DDOT = 0

